OBJECT C                
1 57582U 23117C   24173.20555355  .00006042  00000+0  31670-3 0  9999
2 57582  97.4871 245.2074 0009259 280.0191  79.9997 15.16113859 47792
